ONEWEB-0421             
1 50496U 21132AD  26011.25287987  .00000015  00000+0  45264-5 0  9992
2 50496  87.9184   6.6155 0002012  81.9229 278.2132 13.18685775200932
ONEWEB-0424             
1 50497U 21132AE  26011.21328307 -.00000024  00000+0 -94867-4 0  9995
2 50497  87.9182   6.6188 0001598  98.9990 261.1323 13.18685178200950
ONEWEB-0426             
1 50498U 21132AF  26011.24957552  .00000021  00000+0  20708-4 0  9997
2 50498  87.9185   6.6032 0002459  87.5893 272.5520 13.18684978200902
ONEWEB-0427             
1 50499U 21132AG  26011.21163970  .00000036  00000+0  59028-4 0  9991
2 50499  87.9181   6.5976 0001916  93.6599 266.4752 13.18687329200927
ONEWEB-0429             
1 50500U 21132AH  26010.97080635  .00000000  00000+0 -32478-4 0  9994
2 50500  87.9182   6.6780 0001661  83.8476 276.2845 13.18686033200863
ONEWEB-0430             
1 50501U 21132AJ  26011.26276926  .00000064  00000+0  13065-3 0  9997
2 50501  87.9187   6.6164 0001488  89.4537 270.6766 13.18685000200944
ONEWEB-0432             
1 50502U 21132AK  26011.21899516  .00000032  00000+0  47552-4 0  9993
2 50502  87.9178   6.5953 0002038 114.2767 245.8579 13.18679731200898
ONEWEB-0440             
1 50503U 21132AL  26011.20669125 -.00000028  00000+0 -10335-3 0  9999
2 50503  87.9184   6.6170 0001915  75.4621 284.6723 13.18685472200888
ONEWEB-0450             
1 50504U 21132AM  26011.27610935  .00000086  00000+0  18451-3 0  9991
2 50504  87.9179   6.6237 0001532  81.7773 278.3533 13.18686933200927
ONEWEB-0410             
1 51622U 22012A   26011.33316021  .00000016  00000+0  79423-5 0  9998
2 51622  87.9099  37.0228 0003124 105.0346 255.1131 13.17647738193043
ONEWEB-0411             
1 51623U 22012B   26011.17467508 -.00000586  00000+0 -17145-2 0  9992
2 51623  87.8778  67.5646 0001324 113.9937 246.1329 13.10371434188721
ONEWEB-0415             
1 51624U 22012C   26011.17136900 -.00000476  00000+0 -14014-2 0  9992
2 51624  87.8774  67.5676 0001566 108.2945 251.8353 13.10372396188723
ONEWEB-0416             
1 51625U 22012D   26011.18298870 -.00000574  00000+0 -16810-2 0  9994
2 51625  87.8782  67.5863 0001765 116.1879 243.9430 13.10374661188765
ONEWEB-0422             
1 51626U 22012E   26011.34328593  .00000030  00000+0  43956-4 0  9997
2 51626  87.9095  37.0239 0001586  70.7236 289.4067 13.17648690193159
ONEWEB-0423             
1 51627U 22012F   26011.10872568  .00000034  00000+0  53586-4 0  9992
2 51627  87.9096  37.0804 0001841  90.1896 269.9446 13.17650176193012
ONEWEB-0425             
1 51628U 22012G   26011.19295645 -.00000174  00000+0 -53583-3 0  9990
2 51628  87.8790  67.5577 0002151 101.3149 258.8220 13.10376419188760
ONEWEB-0428             
1 51629U 22012H   26011.17302761 -.00000586  00000+0 -17143-2 0  9995
2 51629  87.8777  67.5782 0001748  98.9655 261.1670 13.10372666188720
