[{"OBJECT_NAME":"ONEWEB-0421","OBJECT_ID":"2021-132AD","EPOCH":"2026-01-11T06:04:08.820768","MEAN_MOTION":13.18685775,"ECCENTRICITY":0.00020127,"INCLINATION":87.9184,"RA_OF_ASC_NODE":6.6155,"ARG_OF_PERICENTER":81.9229,"MEAN_ANOMALY":278.2132,"EPHEMERIS_TYPE":0,"CLASSIFICATION_TYPE":"U","NORAD_CAT_ID":50496,"ELEMENT_SET_NO":999,"REV_AT_EPOCH":20093,"BSTAR":4.526359e-6,"MEAN_MOTION_DOT":1.5e-7,"MEAN_MOTION_DDOT":0},{"OBJECT_NAME":"ONEWEB-0424","OBJECT_ID":"2021-132AE","EPOCH":"2026-01-11T05:07:07.657248","MEAN_MOTION":13.18685178,"ECCENTRICITY":0.00015983,"INCLINATION":87.9182,"RA_OF_ASC_NODE":6.6188,"ARG_OF_PERICENTER":98.999,"MEAN_ANOMALY":261.1323,"EPHEMERIS_TYPE":0,"CLASSIFICATION_TYPE":"U","NORAD_CAT_ID":50497,"ELEMENT_SET_NO":999,"REV_AT_EPOCH":20095,"BSTAR":-9.4867259e-5,"MEAN_MOTION_DOT":-2.4e-7,"MEAN_MOTION_DDOT":0},{"OBJECT_NAME":"ONEWEB-0426","OBJECT_ID":"2021-132AF","EPOCH":"2026-01-11T05:59:23.324928","MEAN_MOTION":13.18684978,"ECCENTRICITY":0.0002459,"INCLINATION":87.9185,"RA_OF_ASC_NODE":6.6032,"ARG_OF_PERICENTER":87.5893,"MEAN_ANOMALY":272.552,"EPHEMERIS_TYPE":0,"CLASSIFICATION_TYPE":"U","NORAD_CAT_ID":50498,"ELEMENT_SET_NO":999,"REV_AT_EPOCH":20090,"BSTAR":2.0707758e-5,"MEAN_MOTION_DOT":2.1e-7,"MEAN_MOTION_DDOT":0},{"OBJECT_NAME":"ONEWEB-0427","OBJECT_ID":"2021-132AG","EPOCH":"2026-01-11T05:04:45.670080","MEAN_MOTION":13.18687329,"ECCENTRICITY":0.00019169,"INCLINATION":87.9181,"RA_OF_ASC_NODE":6.5976,"ARG_OF_PERICENTER":93.6599,"MEAN_ANOMALY":266.4752,"EPHEMERIS_TYPE":0,"CLASSIFICATION_TYPE":"U","NORAD_CAT_ID":50499,"ELEMENT_SET_NO":999,"REV_AT_EPOCH":20092,"BSTAR":5.9027794e-5,"MEAN_MOTION_DOT":3.6e-7,"MEAN_MOTION_DDOT":0},{"OBJECT_NAME":"ONEWEB-0429","OBJECT_ID":"2021-132AH","EPOCH":"2026-01-10T23:17:57.668640","MEAN_MOTION":13.18686033,"ECCENTRICITY":0.00016616,"INCLINATION":87.9182,"RA_OF_ASC_NODE":6.678,"ARG_OF_PERICENTER":83.8476,"MEAN_ANOMALY":276.2845,"EPHEMERIS_TYPE":0,"CLASSIFICATION_TYPE":"U","NORAD_CAT_ID":50500,"ELEMENT_SET_NO":999,"REV_AT_EPOCH":20086,"BSTAR":-3.2478291e-5,"MEAN_MOTION_DOT":0,"MEAN_MOTION_DDOT":0},{"OBJECT_NAME":"ONEWEB-0430","OBJECT_ID":"2021-132AJ","EPOCH":"2026-01-11T06:18:23.264064","MEAN_MOTION":13.18685,"ECCENTRICITY":0.00014889,"INCLINATION":87.9187,"RA_OF_ASC_NODE":6.6164,"ARG_OF_PERICENTER":89.4537,"MEAN_ANOMALY":270.6766,"EPHEMERIS_TYPE":0,"CLASSIFICATION_TYPE":"U","NORAD_CAT_ID":50501,"ELEMENT_SET_NO":999,"REV_AT_EPOCH":20094,"BSTAR":0.00013064783,"MEAN_MOTION_DOT":6.4e-7,"MEAN_MOTION_DDOT":0},{"OBJECT_NAME":"ONEWEB-0432","OBJECT_ID":"2021-132AK","EPOCH":"2026-01-11T05:15:21.181824","MEAN_MOTION":13.18679731,"ECCENTRICITY":0.00020387,"INCLINATION":87.9178,"RA_OF_ASC_NODE":6.5953,"ARG_OF_PERICENTER":114.2767,"MEAN_ANOMALY":245.8579,"EPHEMERIS_TYPE":0,"CLASSIFICATION_TYPE":"U","NORAD_CAT_ID":50502,"ELEMENT_SET_NO":999,"REV_AT_EPOCH":20089,"BSTAR":4.7552049e-5,"MEAN_MOTION_DOT":3.2e-7,"MEAN_MOTION_DDOT":0},{"OBJECT_NAME":"ONEWEB-0440","OBJECT_ID":"2021-132AL","EPOCH":"2026-01-11T04:57:38.124000","MEAN_MOTION":13.18685472,"ECCENTRICITY":0.00019157,"INCLINATION":87.9184,"RA_OF_ASC_NODE":6.617,"ARG_OF_PERICENTER":75.4621,"MEAN_ANOMALY":284.6723,"EPHEMERIS_TYPE":0,"CLASSIFICATION_TYPE":"U","NORAD_CAT_ID":50503,"ELEMENT_SET_NO":999,"REV_AT_EPOCH":20088,"BSTAR":-0.0001033535,"MEAN_MOTION_DOT":-2.8e-7,"MEAN_MOTION_DDOT":0},{"OBJECT_NAME":"ONEWEB-0450","OBJECT_ID":"2021-132AM","EPOCH":"2026-01-11T06:37:35.847840","MEAN_MOTION":13.18686933,"ECCENTRICITY":0.00015325,"INCLINATION":87.9179,"RA_OF_ASC_NODE":6.6237,"ARG_OF_PERICENTER":81.7773,"MEAN_ANOMALY":278.3533,"EPHEMERIS_TYPE":0,"CLASSIFICATION_TYPE":"U","NORAD_CAT_ID":50504,"ELEMENT_SET_NO":999,"REV_AT_EPOCH":20092,"BSTAR":0.00018450722,"MEAN_MOTION_DOT":8.6e-7,"MEAN_MOTION_DDOT":0},{"OBJECT_NAME":"ONEWEB-0410","OBJECT_ID":"2022-012A","EPOCH":"2026-01-11T07:59:45.042144","MEAN_MOTION":13.17647738,"ECCENTRICITY":0.00031248,"INCLINATION":87.9099,"RA_OF_ASC_NODE":37.0228,"ARG_OF_PERICENTER":105.0346,"MEAN_ANOMALY":255.1131,"EPHEMERIS_TYPE":0,"CLASSIFICATION_TYPE":"U","NORAD_CAT_ID":51622,"ELEMENT_SET_NO":999,"REV_AT_EPOCH":19304,"BSTAR":7.942316e-6,"MEAN_MOTION_DOT":1.6e-7,"MEAN_MOTION_DDOT":0},{"OBJECT_NAME":"ONEWEB-0411","OBJECT_ID":"2022-012B","EPOCH":"2026-01-11T04:11:31.926912","MEAN_MOTION":13.10371434,"ECCENTRICITY":0.00013243,"INCLINATION":87.8778,"RA_OF_ASC_NODE":67.5646,"ARG_OF_PERICENTER":113.9937,"MEAN_ANOMALY":246.1329,"EPHEMERIS_TYPE":0,"CLASSIFICATION_TYPE":"U","NORAD_CAT_ID":51623,"ELEMENT_SET_NO":999,"REV_AT_EPOCH":18872,"BSTAR":-0.0017145207,"MEAN_MOTION_DOT":-5.86e-6,"MEAN_MOTION_DDOT":0},{"OBJECT_NAME":"ONEWEB-0415","OBJECT_ID":"2022-012C","EPOCH":"2026-01-11T04:06:46.281600","MEAN_MOTION":13.10372396,"ECCENTRICITY":0.00015669,"INCLINATION":87.8774,"RA_OF_ASC_NODE":67.5676,"ARG_OF_PERICENTER":108.2945,"MEAN_ANOMALY":251.8353,"EPHEMERIS_TYPE":0,"CLASSIFICATION_TYPE":"U","NORAD_CAT_ID":51624,"ELEMENT_SET_NO":999,"REV_AT_EPOCH":18872,"BSTAR":-0.0014013872,"MEAN_MOTION_DOT":-4.76e-6,"MEAN_MOTION_DDOT":0},{"OBJECT_NAME":"ONEWEB-0416","OBJECT_ID":"2022-012D","EPOCH":"2026-01-11T04:23:30.223680","MEAN_MOTION":13.10374661,"ECCENTRICITY":0.00017655,"INCLINATION":87.8782,"RA_OF_ASC_NODE":67.5863,"ARG_OF_PERICENTER":116.1879,"MEAN_ANOMALY":243.943,"EPHEMERIS_TYPE":0,"CLASSIFICATION_TYPE":"U","NORAD_CAT_ID":51625,"ELEMENT_SET_NO":999,"REV_AT_EPOCH":18876,"BSTAR":-0.0016809804,"MEAN_MOTION_DOT":-5.74e-6,"MEAN_MOTION_DDOT":0},{"OBJECT_NAME":"ONEWEB-0422","OBJECT_ID":"2022-012E","EPOCH":"2026-01-11T08:14:19.904352","MEAN_MOTION":13.1764869,"ECCENTRICITY":0.0001586,"INCLINATION":87.9095,"RA_OF_ASC_NODE":37.0239,"ARG_OF_PERICENTER":70.7236,"MEAN_ANOMALY":289.4067,"EPHEMERIS_TYPE":0,"CLASSIFICATION_TYPE":"U","NORAD_CAT_ID":51626,"ELEMENT_SET_NO":999,"REV_AT_EPOCH":19315,"BSTAR":4.3956018e-5,"MEAN_MOTION_DOT":3.0e-7,"MEAN_MOTION_DDOT":0},{"OBJECT_NAME":"ONEWEB-0423","OBJECT_ID":"2022-012F","EPOCH":"2026-01-11T02:36:33.898752","MEAN_MOTION":13.17650176,"ECCENTRICITY":0.00018419,"INCLINATION":87.9096,"RA_OF_ASC_NODE":37.0804,"ARG_OF_PERICENTER":90.1896,"MEAN_ANOMALY":269.9446,"EPHEMERIS_TYPE":0,"CLASSIFICATION_TYPE":"U","NORAD_CAT_ID":51627,"ELEMENT_SET_NO":999,"REV_AT_EPOCH":19301,"BSTAR":5.3585547e-5,"MEAN_MOTION_DOT":3.4e-7,"MEAN_MOTION_DDOT":0},{"OBJECT_NAME":"ONEWEB-0425","OBJECT_ID":"2022-012G","EPOCH":"2026-01-11T04:37:51.437280","MEAN_MOTION":13.10376419,"ECCENTRICITY":0.00021511,"INCLINATION":87.879,"RA_OF_ASC_NODE":67.5577,"ARG_OF_PERICENTER":101.3149,"MEAN_ANOMALY":258.822,"EPHEMERIS_TYPE":0,"CLASSIFICATION_TYPE":"U","NORAD_CAT_ID":51628,"ELEMENT_SET_NO":999,"REV_AT_EPOCH":18876,"BSTAR":-0.00053583088,"MEAN_MOTION_DOT":-1.74e-6,"MEAN_MOTION_DDOT":0},{"OBJECT_NAME":"ONEWEB-0428","OBJECT_ID":"2022-012H","EPOCH":"2026-01-11T04:09:09.585504","MEAN_MOTION":13.10372666,"ECCENTRICITY":0.00017487,"INCLINATION":87.8777,"RA_OF_ASC_NODE":67.5782,"ARG_OF_PERICENTER":98.9655,"MEAN_ANOMALY":261.167,"EPHEMERIS_TYPE":0,"CLASSIFICATION_TYPE":"U","NORAD_CAT_ID":51629,"ELEMENT_SET_NO":999,"REV_AT_EPOCH":18872,"BSTAR":-0.0017142891,"MEAN_MOTION_DOT":-5.86e-6,"MEAN_MOTION_DDOT":0}]
